[
  {
    "OBJECT_NAME": "ARIRANG-2 (KOMPSAT-2)",
    "OBJECT_ID": "2006-031A",
    "EPOCH": "2025-05-31T20:22:46.617024",
    "MEAN_MOTION": 14.6429242,
    "ECCENTRICITY": 0.0013993,
    "INCLINATION": 97.8375,
    "RA_OF_ASC_NODE": 349.7405,
    "ARG_OF_PERICENTER": 197.9852,
    "MEAN_ANOMALY": 292.0801,
    "EPHEMERIS_TYPE": 0,
    "CLASSIFICATION_TYPE": "U",
    "NORAD_CAT_ID": 29268,
    "ELEMENT_SET_NO": 999,
    "REV_AT_EPOCH": 576,
    "BSTAR": 7.9493e-05,
    "MEAN_MOTION_DOT": 3.75e-06,
    "MEAN_MOTION_DDOT": 0
  },
  {
    "OBJECT_NAME": "LAPAN-TUBSAT",
    "OBJECT_ID": "2007-001A",
    "EPOCH": "2025-05-31T20:11:34.957248",
    "MEAN_MOTION": 14.85324138,
    "ECCENTRICITY": 0.0012091,
    "INCLINATION": 98.1089,
    "RA_OF_ASC_NODE": 138.2059,
    "ARG_OF_PERICENTER": 353.9827,
    "MEAN_ANOMALY": 6.124,
    "EPHEMERIS_TYPE": 0,
    "CLASSIFICATION_TYPE": "U",
    "NORAD_CAT_ID": 29709,
    "ELEMENT_SET_NO": 999,
    "REV_AT_EPOCH": 99454,
    "BSTAR": 8.1996e-05,
    "MEAN_MOTION_DOT": 6.48e-06,
    "MEAN_MOTION_DDOT": 0
  },
  {
    "OBJECT_NAME": "HAIYANG-1B",
    "OBJECT_ID": "2007-010A",
    "EPOCH": "2025-05-31T13:44:50.008992",
    "MEAN_MOTION": 14.30890212,
    "ECCENTRICITY": 0.0012276,
    "INCLINATION": 98.3135,
    "RA_OF_ASC_NODE": 144.0943,
    "ARG_OF_PERICENTER": 251.4307,
    "MEAN_ANOMALY": 108.5543,
    "EPHEMERIS_TYPE": 0,
    "CLASSIFICATION_TYPE": "U",
    "NORAD_CAT_ID": 31113,
    "ELEMENT_SET_NO": 999,
    "REV_AT_EPOCH": 94605,
    "BSTAR": 5.266e-05,
    "MEAN_MOTION_DOT": 9.7e-07,
    "MEAN_MOTION_DDOT": 0
  },
  {
    "OBJECT_NAME": "COSMO-SKYMED 1",
    "OBJECT_ID": "2007-023A",
    "EPOCH": "2025-05-31T19:50:27.494304",
    "MEAN_MOTION": 14.9068124,
    "ECCENTRICITY": 1.82e-05,
    "INCLINATION": 97.8874,
    "RA_OF_ASC_NODE": 336.2777,
    "ARG_OF_PERICENTER": 161.6308,
    "MEAN_ANOMALY": 198.4916,
    "EPHEMERIS_TYPE": 0,
    "CLASSIFICATION_TYPE": "U",
    "NORAD_CAT_ID": 31598,
    "ELEMENT_SET_NO": 999,
    "REV_AT_EPOCH": 97285,
    "BSTAR": 7.3799e-05,
    "MEAN_MOTION_DOT": 6.67e-06,
    "MEAN_MOTION_DDOT": 0
  },
  {
    "OBJECT_NAME": "TERRASAR-X",
    "OBJECT_ID": "2007-026A",
    "EPOCH": "2025-05-31T19:32:45.945888",
    "MEAN_MOTION": 15.19146005,
    "ECCENTRICITY": 0.000182,
    "INCLINATION": 97.4453,
    "RA_OF_ASC_NODE": 159.9726,
    "ARG_OF_PERICENTER": 81.5042,
    "MEAN_ANOMALY": 278.6399,
    "EPHEMERIS_TYPE": 0,
    "CLASSIFICATION_TYPE": "U",
    "NORAD_CAT_ID": 31698,
    "ELEMENT_SET_NO": 999,
    "REV_AT_EPOCH": 99598,
    "BSTAR": 6.1543e-05,
    "MEAN_MOTION_DOT": 1.225e-05,
    "MEAN_MOTION_DDOT": 0
  },
  {
    "OBJECT_NAME": "WORLDVIEW-1 (WV-1)",
    "OBJECT_ID": "2007-041A",
    "EPOCH": "2025-05-31T13:46:35.445504",
    "MEAN_MOTION": 15.24367764,
    "ECCENTRICITY": 0.0003851,
    "INCLINATION": 97.3846,
    "RA_OF_ASC_NODE": 271.9224,
    "ARG_OF_PERICENTER": 147.2983,
    "MEAN_ANOMALY": 212.8493,
    "EPHEMERIS_TYPE": 0,
    "CLASSIFICATION_TYPE": "U",
    "NORAD_CAT_ID": 32060,
    "ELEMENT_SET_NO": 999,
    "REV_AT_EPOCH": 98479,
    "BSTAR": 0.00027309,
    "MEAN_MOTION_DOT": 6.618e-05,
    "MEAN_MOTION_DDOT": 0
  },
  {
    "OBJECT_NAME": "YAOGAN-3",
    "OBJECT_ID": "2007-055A",
    "EPOCH": "2025-05-31T19:55:13.506816",
    "MEAN_MOTION": 14.88745254,
    "ECCENTRICITY": 0.0001314,
    "INCLINATION": 97.8527,
    "RA_OF_ASC_NODE": 180.1192,
    "ARG_OF_PERICENTER": 101.034,
    "MEAN_ANOMALY": 259.1025,
    "EPHEMERIS_TYPE": 0,
    "CLASSIFICATION_TYPE": "U",
    "NORAD_CAT_ID": 32289,
    "ELEMENT_SET_NO": 999,
    "REV_AT_EPOCH": 94914,
    "BSTAR": 0.00027992,
    "MEAN_MOTION_DOT": 2.562e-05,
    "MEAN_MOTION_DDOT": 0
  },
  {
    "OBJECT_NAME": "COSMO-SKYMED 2",
    "OBJECT_ID": "2007-059A",
    "EPOCH": "2025-05-31T19:03:33.406560",
    "MEAN_MOTION": 14.82155887,
    "ECCENTRICITY": 0.0001367,
    "INCLINATION": 97.8874,
    "RA_OF_ASC_NODE": 335.9286,
    "ARG_OF_PERICENTER": 92.5971,
    "MEAN_ANOMALY": 267.5399,
    "EPHEMERIS_TYPE": 0,
    "CLASSIFICATION_TYPE": "U",
    "NORAD_CAT_ID": 32376,
    "ELEMENT_SET_NO": 999,
    "REV_AT_EPOCH": 94558,
    "BSTAR": 6.7525e-05,
    "MEAN_MOTION_DOT": 4.85e-06,
    "MEAN_MOTION_DDOT": 0
  },
  {
    "OBJECT_NAME": "RADARSAT-2",
    "OBJECT_ID": "2007-061A",
    "EPOCH": "2025-05-31T20:04:37.556256",
    "MEAN_MOTION": 14.29982431,
    "ECCENTRICITY": 0.000129,
    "INCLINATION": 98.5779,
    "RA_OF_ASC_NODE": 159.2076,
    "ARG_OF_PERICENTER": 90.3806,
    "MEAN_ANOMALY": 269.7524,
    "EPHEMERIS_TYPE": 0,
    "CLASSIFICATION_TYPE": "U",
    "NORAD_CAT_ID": 32382,
    "ELEMENT_SET_NO": 999,
    "REV_AT_EPOCH": 91156,
    "BSTAR": 1.3506e-05,
    "MEAN_MOTION_DOT": -9e-08,
    "MEAN_MOTION_DDOT": 0
  },
  {
    "OBJECT_NAME": "CARTOSAT-2A",
    "OBJECT_ID": "2008-021A",
    "EPOCH": "2025-05-31T20:43:54.923232",
    "MEAN_MOTION": 14.78739885,
    "ECCENTRICITY": 0.0009831,
    "INCLINATION": 97.8156,
    "RA_OF_ASC_NODE": 207.4856,
    "ARG_OF_PERICENTER": 269.3781,
    "MEAN_ANOMALY": 90.6304,
    "EPHEMERIS_TYPE": 0,
    "CLASSIFICATION_TYPE": "U",
    "NORAD_CAT_ID": 32783,
    "ELEMENT_SET_NO": 999,
    "REV_AT_EPOCH": 92253,
    "BSTAR": 0.00011564,
    "MEAN_MOTION_DOT": 7.99e-06,
    "MEAN_MOTION_DDOT": 0
  },
  {
    "OBJECT_NAME": "HUANJING 1A (HJ-1A)",
    "OBJECT_ID": "2008-041A",
    "EPOCH": "2025-05-31T20:00:47.631168",
    "MEAN_MOTION": 14.8267447,
    "ECCENTRICITY": 0.0018202,
    "INCLINATION": 97.6403,
    "RA_OF_ASC_NODE": 148.5201,
    "ARG_OF_PERICENTER": 313.9414,
    "MEAN_ANOMALY": 46.0297,
    "EPHEMERIS_TYPE": 0,
    "CLASSIFICATION_TYPE": "U",
    "NORAD_CAT_ID": 33320,
    "ELEMENT_SET_NO": 999,
    "REV_AT_EPOCH": 90197,
    "BSTAR": 0.00019369,
    "MEAN_MOTION_DOT": 1.515e-05,
    "MEAN_MOTION_DDOT": 0
  },
  {
    "OBJECT_NAME": "HUANJING 1B (HJ-1B)",
    "OBJECT_ID": "2008-041B",
    "EPOCH": "2025-05-31T20:39:56.198304",
    "MEAN_MOTION": 14.82229334,
    "ECCENTRICITY": 0.0037,
    "INCLINATION": 97.6289,
    "RA_OF_ASC_NODE": 152.6908,
    "ARG_OF_PERICENTER": 357.1354,
    "MEAN_ANOMALY": 2.9642,
    "EPHEMERIS_TYPE": 0,
    "CLASSIFICATION_TYPE": "U",
    "NORAD_CAT_ID": 33321,
    "ELEMENT_SET_NO": 999,
    "REV_AT_EPOCH": 90199,
    "BSTAR": 0.00014937,
    "MEAN_MOTION_DOT": 1.154e-05,
    "MEAN_MOTION_DDOT": 0
  },
  {
    "OBJECT_NAME": "GEOEYE 1",
    "OBJECT_ID": "2008-042A",
    "EPOCH": "2025-05-31T13:21:39.598848",
    "MEAN_MOTION": 14.6466392,
    "ECCENTRICITY": 0.0004624,
    "INCLINATION": 98.122,
    "RA_OF_ASC_NODE": 225.3347,
    "ARG_OF_PERICENTER": 160.8609,
    "MEAN_ANOMALY": 199.2768,
    "EPHEMERIS_TYPE": 0,
    "CLASSIFICATION_TYPE": "U",
    "NORAD_CAT_ID": 33331,
    "ELEMENT_SET_NO": 999,
    "REV_AT_EPOCH": 89428,
    "BSTAR": 0.000118,
    "MEAN_MOTION_DOT": 5.8e-06,
    "MEAN_MOTION_DDOT": 0
  },
  {
    "OBJECT_NAME": "THEOS",
    "OBJECT_ID": "2008-049A",
    "EPOCH": "2025-05-31T20:43:42.337344",
    "MEAN_MOTION": 14.20106357,
    "ECCENTRICITY": 0.0001034,
    "INCLINATION": 98.6097,
    "RA_OF_ASC_NODE": 215.3923,
    "ARG_OF_PERICENTER": 95.6763,
    "MEAN_ANOMALY": 264.4531,
    "EPHEMERIS_TYPE": 0,
    "CLASSIFICATION_TYPE": "U",
    "NORAD_CAT_ID": 33396,
    "ELEMENT_SET_NO": 999,
    "REV_AT_EPOCH": 86386,
    "BSTAR": 4.9547e-05,
    "MEAN_MOTION_DOT": 6.3e-07,
    "MEAN_MOTION_DDOT": 0
  }
]