ARIRANG-2 (KOMPSAT-2)   
1 29268U 06031A   25151.84915066  .00000375  00000+0  79493-4 0  9990
2 29268  97.8375 349.7405 0013993 197.9852 292.0801 14.64292420  5760
LAPAN-TUBSAT            
1 29709U 07001A   25151.84137682  .00000648  00000+0  81996-4 0  9992
2 29709  98.1089 138.2059 0012091 353.9827   6.1240 14.85324138994545
HAIYANG-1B              
1 31113U 07010A   25151.57280103  .00000097  00000+0  52660-4 0  9995
2 31113  98.3135 144.0943 0012276 251.4307 108.5543 14.30890212946055
COSMO-SKYMED 1          
1 31598U 07023A   25151.82670711  .00000667  00000+0  73799-4 0  9991
2 31598  97.8874 336.2777 0000182 161.6308 198.4916 14.90681240972856
TERRASAR-X              
1 31698U 07026A   25151.81442067  .00001225  00000+0  61543-4 0  9990
2 31698  97.4453 159.9726 0001820  81.5042 278.6399 15.19146005995987
WORLDVIEW-1 (WV-1)      
1 32060U 07041A   25151.57402136  .00006618  00000+0  27309-3 0  9999
2 32060  97.3846 271.9224 0003851 147.2983 212.8493 15.24367764984799
YAOGAN-3                
1 32289U 07055A   25151.83001744  .00002562  00000+0  27992-3 0  9998
2 32289  97.8527 180.1192 0001314 101.0340 259.1025 14.88745254949143
COSMO-SKYMED 2          
1 32376U 07059A   25151.79413665  .00000485  00000+0  67525-4 0  9992
2 32376  97.8874 335.9286 0001367  92.5971 267.5399 14.82155887945583
RADARSAT-2              
1 32382U 07061A   25151.83654579 -.00000009  00000+0  13506-4 0  9991
2 32382  98.5779 159.2076 0001290  90.3806 269.7524 14.29982431911563
CARTOSAT-2A             
1 32783U 08021A   25151.86383013  .00000799  00000+0  11564-3 0  9994
2 32783  97.8156 207.4856 0009831 269.3781  90.6304 14.78739885922533
HUANJING 1A (HJ-1A)     
1 33320U 08041A   25151.83388462  .00001515  00000+0  19369-3 0  9992
2 33320  97.6403 148.5201 0018202 313.9414  46.0297 14.82674470901978
HUANJING 1B (HJ-1B)     
1 33321U 08041B   25151.86106711  .00001154  00000+0  14937-3 0  9996
2 33321  97.6289 152.6908 0037000 357.1354   2.9642 14.82229334901993
GEOEYE 1                
1 33331U 08042A   25151.55670832  .00000580  00000+0  11800-3 0  9992
2 33331  98.1220 225.3347 0004624 160.8609 199.2768 14.64663920894283
THEOS                   
1 33396U 08049A   25151.86368446  .00000063  00000+0  49547-4 0  9995
2 33396  98.6097 215.3923 0001034  95.6763 264.4531 14.20106357863869
